[{"OBJECT_NAME":"BISONSAT","OBJECT_ID":"2015-058L","EPOCH":"2026-03-09T11:49:35.353056","MEAN_MOTION":15.13791398,"ECCENTRICITY":0.00792382,"INCLINATION":64.7598,"RA_OF_ASC_NODE":135.3937,"ARG_OF_PERICENTER":90.6713,"MEAN_ANOMALY":270.349,"EPHEMERIS_TYPE":0,"CLASSIFICATION_TYPE":"U","NORAD_CAT_ID":40974,"ELEMENT_SET_NO":999,"REV_AT_EPOCH":10051,"BSTAR":0.0006711096,"MEAN_MOTION_DOT":0.00012971,"MEAN_MOTION_DDOT":0},{"OBJECT_NAME":"STARLINK-32446","OBJECT_ID":"2024-175V","EPOCH":"2026-03-09T13:40:49.468800","MEAN_MOTION":15.3019881,"ECCENTRICITY":0.0001414,"INCLINATION":53.1611,"RA_OF_ASC_NODE":194.7125,"ARG_OF_PERICENTER":95.9075,"MEAN_ANOMALY":264.2087,"EPHEMERIS_TYPE":0,"CLASSIFICATION_TYPE":"U","NORAD_CAT_ID":61262,"ELEMENT_SET_NO":999,"REV_AT_EPOCH":8143,"BSTAR":-3.3267e-5,"MEAN_MOTION_DOT":-1.344e-5,"MEAN_MOTION_DDOT":0}]
